     3.02           N: GNSS NAV DATA    M: Mixed            RINEX VERSION / TYPE
RTKCONV demo5 b33c                      20231218 134210 UTC PGM / RUN BY / DATE 
log: E:\OneDrive - IIT Kanpur\Phd Thesis\RP1\Data\LCG\AGRI  COMMENT             
format: u-blox                                              COMMENT             
GPSA   1.9558E-08  0.0000E+00 -1.1921E-07  0.0000E+00       IONOSPHERIC CORR    
GPSB   1.2288E+05 -1.6384E+04 -2.6214E+05  1.9661E+05       IONOSPHERIC CORR    
GAL    0.0000E+00  0.0000E+00  0.0000E+00  0.0000E+00       IONOSPHERIC CORR    
QZSA   2.2352E-08 -1.4901E-08 -3.5763E-07 -3.5763E-07       IONOSPHERIC CORR    
QZSB   1.1878E+05 -1.1469E+05 -2.6214E+05  3.2768E+05       IONOSPHERIC CORR    
GPUT -9.3132257462E-10 2.664535259E-15 233472 2232          TIME SYSTEM CORR    
GAUT  0.0000000000E+00 0.000000000E+00      0    0          TIME SYSTEM CORR    
QZUT -1.8626451492E-09 0.000000000E+00 266240 2232          TIME SYSTEM CORR    
BDUT  0.0000000000E+00 0.000000000E+00      0    0          TIME SYSTEM CORR    
    18                                                      LEAP SECONDS        
                                                            END OF HEADER       
J 2 2022 10 16  8  0  0 -.735465437174E-05 -.909494701773E-12  .000000000000E+00
      .290000000000E+02  .206250000000E+03  .217901933633E-08  .192617569242E+01
      .750273466110E-05  .747085859766E-01  .118296593428E-04  .649378808594E+04
      .288000000000E+05  .281259417534E-06 -.212932679585E+01  .838190317154E-07
      .725605148070E+00 -.239781250000E+03 -.155745393752E+01 -.210794494723E-08
     -.445375694543E-09  .200000000000E+01  .223200000000E+04  .100000000000E+01
      .280000000000E+01  .000000000000E+00  .465661287308E-09  .797000000000E+03
      .252060000000E+05  .100000000000E+01
R17 2022 10 16  7 15  0  .569542869925E-03  .272848410532E-11  .252000000000E+05
      .187395244141E+05  .416016578674E+00  .000000000000E+00  .000000000000E+00
      .170593081055E+05  .104384422302E+00  .000000000000E+00  .400000000000E+01
      .269004443359E+04 -.357883548737E+01  .000000000000E+00  .000000000000E+00
R12 2022 10 16  7 15  0  .220676884055E-04  .000000000000E+00  .252000000000E+05
     -.100697255859E+05  .448179244995E+00  .000000000000E+00  .000000000000E+00
      .215554824219E+05 -.118192672729E+01  .000000000000E+00 -.100000000000E+01
      .920530664062E+04  .326952171326E+01 -.279396772385E-08  .000000000000E+00
R 2 2022 10 16  7 15  0 -.230232253671E-04  .000000000000E+00  .252000000000E+05
     -.400512695312E+02 -.302669620514E+01  .931322574615E-09  .000000000000E+00
      .111780659180E+05  .817598342896E+00 -.931322574615E-09 -.400000000000E+01
      .229586147461E+05 -.410302162170E+00 -.186264514923E-08  .000000000000E+00
R13 2022 10 16  7 15  0 -.278530642390E-04  .000000000000E+00  .252000000000E+05
     -.242571923828E+04 -.932598114014E-01 -.931322574615E-09  .000000000000E+00
      .243644887695E+05  .984835624695E+00  .931322574615E-09 -.200000000000E+01
     -.716101025391E+04  .338741493225E+01 -.931322574615E-09  .000000000000E+00
R18 2022 10 16  7 15  0  .473372638226E-04  .181898940355E-11  .252000000000E+05
      .173688432617E+05  .179848957062E+01  .931322574615E-09  .000000000000E+00
      .645658544922E+04  .160300827026E+01 -.186264514923E-08 -.300000000000E+01
      .175680156250E+05 -.236574745178E+01  .000000000000E+00  .000000000000E+00
R 1 2022 10 16  7 15  0  .163158401847E-04  .000000000000E+00  .252000000000E+05
     -.184337426758E+05 -.166109657288E+01  .000000000000E+00  .000000000000E+00
      .119880004883E+05  .626305580139E+00  .000000000000E+00  .100000000000E+01
      .129288374023E+05 -.294678783417E+01 -.279396772385E-08  .000000000000E+00
R24 2022 10 16  7 15  0  .120654702187E-03  .181898940355E-11  .252000000000E+05
      .926391845703E+04 -.126770210266E+01 -.931322574615E-09  .000000000000E+00
      .189888969727E+05 -.149818420410E+01  .931322574615E-09  .200000000000E+01
     -.142548144531E+05 -.281781578064E+01  .000000000000E+00  .000000000000E+00
R11 2022 10 16  7 15  0  .244174152613E-04 -.909494701773E-12  .252000000000E+05
     -.119933100586E+05  .767871856689E+00  .931322574615E-09  .000000000000E+00
      .536712353516E+04 -.289248943329E+01  .000000000000E+00  .000000000000E+00
      .218790151367E+05  .112976646423E+01 -.186264514923E-08  .000000000000E+00
R 3 2022 10 16  7 15  0  .655744224787E-04  .909494701773E-12  .252000000000E+05
      .173692207031E+05 -.243014431000E+01  .931322574615E-09  .000000000000E+00
      .423358398438E+04  .551326751709E+00 -.186264514923E-08  .500000000000E+01
      .182600458984E+05  .218235969543E+01  .000000000000E+00  .000000000000E+00
E 1 2022 10 16  6 40  0 -.547359988559E-03 -.723332505004E-11  .000000000000E+00
      .400000000000E+02  .874375000000E+02  .284011830233E-08  .472293582683E+00
      .413320958614E-05  .241951784119E-03  .782124698162E-05  .544061507607E+04
      .240000000000E+05  .279396772385E-07 -.219682182617E+01  .223517417908E-07
      .972004169521E+00  .178375000000E+03 -.101152266463E+01 -.540058209878E-08
     -.143577409147E-09  .513000000000E+03  .223200000000E+04  .000000000000E+00
      .312000000000E+01  .650000000000E+02  .232830643654E-09  .232830643654E-09
      .252190000000E+05  .000000000000E+00
C14 2022 10 16  7  0  0  .574614037760E-03  .287938561883E-10  .000000000000E+00
      .100000000000E+01 -.466250000000E+02  .362693679076E-08  .213401975220E+01
     -.230548903346E-05  .103727157693E-02  .838935375214E-05  .528262584877E+04
      .252000000000E+05 -.279396772385E-07  .145088104009E+01 -.833533704281E-07
      .967762987144E+00  .198562500000E+03 -.261372217671E+00 -.653455790485E-08
      .159649507186E-09  .000000000000E+00  .876000000000E+03  .100000000000E+01
      .200000000000E+01  .000000000000E+00  .740000000000E-08  .160000000000E-08
      .252000000000E+05  .000000000000E+00
C24 2022 10 16  7  0  0 -.636034528725E-03 -.181779924446E-09  .000000000000E+00
      .100000000000E+01  .345937500000E+02  .402123892931E-08 -.960074075510E-01
      .174064189196E-05  .605686684139E-03  .800378620625E-05  .528261381340E+04
      .252000000000E+05 -.279396772385E-08 -.273238179401E+01  .130385160446E-07
      .947077934077E+00  .191015625000E+03  .328133218603E+00 -.680778357151E-08
     -.223937899341E-09  .000000000000E+00  .876000000000E+03  .100000000000E+01
      .200000000000E+01  .000000000000E+00  .460000000000E-08  .460000000000E-08
      .252000000000E+05  .100000000000E+01
C26 2022 10 16  7  0  0 -.221821246669E-04 -.535660404921E-11  .000000000000E+00
      .100000000000E+01  .330000000000E+02  .403516808095E-08  .536128691866E+00
      .159442424774E-05  .792283215560E-03  .817654654384E-05  .528262238693E+04
      .252000000000E+05 -.107102096081E-07 -.275635881944E+01  .214204192162E-07
      .948547801018E+00  .190218750000E+03  .413483058749E+00 -.679278294668E-08
     -.219294848796E-09  .000000000000E+00  .876000000000E+03  .100000000000E+01
      .200000000000E+01  .000000000000E+00 -.460000000000E-08 -.460000000000E-08
      .252000000000E+05  .100000000000E+01
C11 2022 10 16  7  0  0 -.348581001163E-03  .222053486709E-10  .000000000000E+00
      .200000000000E+01  .670312500000E+01  .343228582562E-08 -.400333267030E+00
      .331550836563E-06  .224512128625E-02  .300211831927E-05  .528260424995E+04
      .252000000000E+05  .484287738800E-07 -.609060073522E+00 -.931322574615E-09
      .988884615928E+00  .313250000000E+03 -.191536308496E+01 -.680921220245E-08
      .121433629627E-10  .000000000000E+00  .876000000000E+03  .100000000000E+01
      .200000000000E+01  .000000000000E+00  .430000000000E-08  .170000000000E-08
      .252000000000E+05  .100000000000E+01
C 6 2022 10 16  7  0  0  .893725315109E-03 -.110524922547E-10  .000000000000E+00
      .100000000000E+01 -.157656250000E+02  .145720355552E-08 -.210083968761E+01
     -.327359884977E-06  .302015850320E-02  .101784244180E-04  .649358066559E+04
      .252000000000E+05 -.139698386192E-07  .262947281002E+01  .838190317154E-08
      .946387322636E+00 -.752343750000E+02 -.310080275393E+01 -.192829460692E-08
     -.578595529398E-10  .000000000000E+00  .876000000000E+03  .100000000000E+01
      .200000000000E+01  .000000000000E+00  .860000000000E-08 -.180000000000E-08
      .252000000000E+05  .000000000000E+00
C 9 2022 10 16  7  0  0 -.833435449749E-03  .108153486167E-10  .000000000000E+00
      .100000000000E+01 -.209218750000E+02  .143291682959E-08  .311302331033E+01
     -.490341335535E-06  .974722625688E-02  .102501362562E-04  .649373526955E+04
      .252000000000E+05  .605359673500E-08  .267317524498E+01 -.451691448689E-07
      .951330282908E+00 -.825000000000E+02 -.232720022628E+01 -.188007831281E-08
     -.105004373854E-09  .000000000000E+00  .876000000000E+03  .100000000000E+01
      .200000000000E+01  .000000000000E+00  .690000000000E-08  .370000000000E-08
      .252000000000E+05  .000000000000E+00
C13 2022 10 16  7  0  0  .108174397610E-03  .978417347142E-11  .000000000000E+00
      .100000000000E+01 -.396406250000E+03  .765031866648E-09 -.745195176233E+00
     -.133994035423E-04  .455092149787E-02  .841170549393E-05  .649370403862E+04
      .252000000000E+05 -.180210918188E-06  .472667832238E+00 -.400468707085E-07
      .101737675369E+01 -.437500000000E+01 -.253787118946E+01 -.182221875987E-08
      .150006248362E-10  .000000000000E+00  .876000000000E+03  .100000000000E+01
      .200000000000E+01  .000000000000E+00 -.940000000000E-08  .260000000000E-08
      .252000000000E+05  .000000000000E+00
